{
  "type": "FeatureCollection",
  "features": [
    {
      "type": "Feature",
      "properties": {
        "norad_id": 34554,
        "name": "COSMOS 2251 DEB",
        "group": "cosmos-2251-debris",
        "lat": 44.67660000704183,
        "lon": -26.447448212082012,
        "alt_km": 746.725587319509,
        "timestamp": "2025-12-02T21:34:01.665251+00:00",
        "meta_object_name": "COSMOS 2251 DEB",
        "meta_object_id": "1993-036UQ",
        "meta_epoch": "2025-12-01T09:20:45.697920",
        "meta_mean_motion": 14.37898426,
        "meta_eccentricity": 0.0022484,
        "meta_inclination": 74.0383,
        "meta_ra_of_asc_node": 319.8912,
        "meta_arg_of_pericenter": 25.0475,
        "meta_mean_anomaly": 132.7125,
        "meta_ephemeris_type": 0,
        "meta_classification_type": "U",
        "meta_norad_cat_id": 34554,
        "meta_element_set_no": 999,
        "meta_rev_at_epoch": 87592,
        "meta_bstar": 0.00040434985,
        "meta_mean_motion_dot": 1.198e-05,
        "meta_mean_motion_ddot": 0,
        "tle_line1": "1 34554U 93036UQ  25335.38941780  .00001198  00000+0  40435-3 0  9997",
        "tle_line2": "2 34554  74.0383 319.8912 0022484  25.0475 132.7125 14.37898426875928"
      },
      "geometry": {
        "type": "Point",
        "coordinates": [
          -26.447448212082012,
          44.67660000704183
        ]
      }
    },
    {
      "type": "Feature",
      "properties": {
        "norad_id": 34556,
        "name": "COSMOS 2251 DEB",
        "group": "cosmos-2251-debris",
        "lat": -58.851885048107135,
        "lon": -7.497642856267767,
        "alt_km": 639.7577192155468,
        "timestamp": "2025-12-02T21:34:01.665261+00:00",
        "meta_object_name": "COSMOS 2251 DEB",
        "meta_object_id": "1993-036US",
        "meta_epoch": "2025-12-02T12:35:52.293120",
        "meta_mean_motion": 14.7726569,
        "meta_eccentricity": 0.0009225,
        "meta_inclination": 74.0148,
        "meta_ra_of_asc_node": 144.9223,
        "meta_arg_of_pericenter": 203.3065,
        "meta_mean_anomaly": 212.7979,
        "meta_ephemeris_type": 0,
        "meta_classification_type": "U",
        "meta_norad_cat_id": 34556,
        "meta_element_set_no": 999,
        "meta_rev_at_epoch": 88178,
        "meta_bstar": 0.0026967,
        "meta_mean_motion_dot": 0.00019164,
        "meta_mean_motion_ddot": 0,
        "tle_line1": "1 34556U 93036US  25336.52491080  .00019164  00000+0  26967-2 0  9994",
        "tle_line2": "2 34556  74.0148 144.9223 0009225 203.3065 212.7979 14.77265690881787"
      },
      "geometry": {
        "type": "Point",
        "coordinates": [
          -7.497642856267767,
          -58.851885048107135
        ]
      }
    },
    {
      "type": "Feature",
      "properties": {
        "norad_id": 34560,
        "name": "COSMOS 2251 DEB",
        "group": "cosmos-2251-debris",
        "lat": -23.661612828665707,
        "lon": 154.07793075573684,
        "alt_km": 661.4482143947125,
        "timestamp": "2025-12-02T21:34:01.665271+00:00",
        "meta_object_name": "COSMOS 2251 DEB",
        "meta_object_id": "1993-036UW",
        "meta_epoch": "2025-12-02T12:01:19.385184",
        "meta_mean_motion": 14.71693303,
        "meta_eccentricity": 0.0015438,
        "meta_inclination": 74.0162,
        "meta_ra_of_asc_node": 162.0667,
        "meta_arg_of_pericenter": 242.7025,
        "meta_mean_anomaly": 146.3073,
        "meta_ephemeris_type": 0,
        "meta_classification_type": "U",
        "meta_norad_cat_id": 34560,
        "meta_element_set_no": 999,
        "meta_rev_at_epoch": 88101,
        "meta_bstar": 0.0023482,
        "meta_mean_motion_dot": 0.00014665,
        "meta_mean_motion_ddot": 0,
        "tle_line1": "1 34560U 93036UW  25336.50091881  .00014665  00000+0  23482-2 0  9992",
        "tle_line2": "2 34560  74.0162 162.0667 0015438 242.7025 146.3073 14.71693303881010"
      },
      "geometry": {
        "type": "Point",
        "coordinates": [
          154.07793075573684,
          -23.661612828665707
        ]
      }
    },
    {
      "type": "Feature",
      "properties": {
        "norad_id": 34563,
        "name": "COSMOS 2251 DEB",
        "group": "cosmos-2251-debris",
        "lat": -70.84001775432597,
        "lon": 166.62303170101032,
        "alt_km": 736.2208173068975,
        "timestamp": "2025-12-02T21:34:01.665281+00:00",
        "meta_object_name": "COSMOS 2251 DEB",
        "meta_object_id": "1993-036UZ",
        "meta_epoch": "2025-12-01T19:42:09.660960",
        "meta_mean_motion": 14.46450669,
        "meta_eccentricity": 0.0013741,
        "meta_inclination": 74.0388,
        "meta_ra_of_asc_node": 224.0914,
        "meta_arg_of_pericenter": 318.5063,
        "meta_mean_anomaly": 112.859,
        "meta_ephemeris_type": 0,
        "meta_classification_type": "U",
        "meta_norad_cat_id": 34563,
        "meta_element_set_no": 999,
        "meta_rev_at_epoch": 88039,
        "meta_bstar": 0.00049499956,
        "meta_mean_motion_dot": 1.755e-05,
        "meta_mean_motion_ddot": 0,
        "tle_line1": "1 34563U 93036UZ  25335.82094515  .00001755  00000+0  49500-3 0  9992",
        "tle_line2": "2 34563  74.0388 224.0914 0013741 318.5063 112.8590 14.46450669880396"
      },
      "geometry": {
        "type": "Point",
        "coordinates": [
          166.62303170101032,
          -70.84001775432597
        ]
      }
    },
    {
      "type": "Feature",
      "properties": {
        "norad_id": 34564,
        "name": "COSMOS 2251 DEB",
        "group": "cosmos-2251-debris",
        "lat": -73.30573471383283,
        "lon": 148.90155302984968,
        "alt_km": 764.8450573100736,
        "timestamp": "2025-12-02T21:34:01.665291+00:00",
        "meta_object_name": "COSMOS 2251 DEB",
        "meta_object_id": "1993-036VA",
        "meta_epoch": "2025-12-02T05:54:47.448864",
        "meta_mean_motion": 14.40659715,
        "meta_eccentricity": 0.0018586,
        "meta_inclination": 74.0328,
        "meta_ra_of_asc_node": 257.4245,
        "meta_arg_of_pericenter": 3.3651,
        "meta_mean_anomaly": 120.4925,
        "meta_ephemeris_type": 0,
        "meta_classification_type": "U",
        "meta_norad_cat_id": 34564,
        "meta_element_set_no": 999,
        "meta_rev_at_epoch": 87855,
        "meta_bstar": 0.00037244,
        "meta_mean_motion_dot": 1.165e-05,
        "meta_mean_motion_ddot": 0,
        "tle_line1": "1 34564U 93036VA  25336.24638251  .00001165  00000+0  37244-3 0  9998",
        "tle_line2": "2 34564  74.0328 257.4245 0018586   3.3651 120.4925 14.40659715878551"
      },
      "geometry": {
        "type": "Point",
        "coordinates": [
          148.90155302984968,
          -73.30573471383283
        ]
      }
    },
    {
      "type": "Feature",
      "properties": {
        "norad_id": 34567,
        "name": "COSMOS 2251 DEB",
        "group": "cosmos-2251-debris",
        "lat": -0.5866738701128625,
        "lon": -5.339832933904364,
        "alt_km": 796.0855102537425,
        "timestamp": "2025-12-02T21:34:01.665301+00:00",
        "meta_object_name": "COSMOS 2251 DEB",
        "meta_object_id": "1993-036VD",
        "meta_epoch": "2025-12-02T01:03:00.429408",
        "meta_mean_motion": 14.23999079,
        "meta_eccentricity": 0.00747013,
        "meta_inclination": 74.04,
        "meta_ra_of_asc_node": 176.0304,
        "meta_arg_of_pericenter": 252.5589,
        "meta_mean_anomaly": 228.0525,
        "meta_ephemeris_type": 0,
        "meta_classification_type": "U",
        "meta_norad_cat_id": 34567,
        "meta_element_set_no": 999,
        "meta_rev_at_epoch": 86972,
        "meta_bstar": 0.00022992069,
        "meta_mean_motion_dot": 5.17e-06,
        "meta_mean_motion_ddot": 0,
        "tle_line1": "1 34567U 93036VD  25336.04375497  .00000517  00000+0  22992-3 0  9993",
        "tle_line2": "2 34567  74.0400 176.0304 0074701 252.5589 228.0525 14.23999079869727"
      },
      "geometry": {
        "type": "Point",
        "coordinates": [
          -5.339832933904364,
          -0.5866738701128625
        ]
      }
    },
    {
      "type": "Feature",
      "properties": {
        "norad_id": 34569,
        "name": "COSMOS 2251 DEB",
        "group": "cosmos-2251-debris",
        "lat": -38.160172877777285,
        "lon": -157.10906692035266,
        "alt_km": 806.9156143677747,
        "timestamp": "2025-12-02T21:34:01.665311+00:00",
        "meta_object_name": "COSMOS 2251 DEB",
        "meta_object_id": "1993-036VF",
        "meta_epoch": "2025-12-02T08:49:37.151904",
        "meta_mean_motion": 14.24704448,
        "meta_eccentricity": 0.0156822,
        "meta_inclination": 73.9905,
        "meta_ra_of_asc_node": 216.8891,
        "meta_arg_of_pericenter": 47.6843,
        "meta_mean_anomaly": 72.6364,
        "meta_ephemeris_type": 0,
        "meta_classification_type": "U",
        "meta_norad_cat_id": 34569,
        "meta_element_set_no": 999,
        "meta_rev_at_epoch": 86820,
        "meta_bstar": 0.000742,
        "meta_mean_motion_dot": 1.937e-05,
        "meta_mean_motion_ddot": 0,
        "tle_line1": "1 34569U 93036VF  25336.36779111  .00001937  00000+0  74200-3 0  9997",
        "tle_line2": "2 34569  73.9905 216.8891 0156822  47.6843  72.6364 14.24704448868203"
      },
      "geometry": {
        "type": "Point",
        "coordinates": [
          -157.10906692035266,
          -38.160172877777285
        ]
      }
    }
  ]
}